SPOT 6                  
1 38755U 12047A   26193.51206882  .00000390  00000+0  93801-4 0  9991
2 38755  98.2114 260.5231 0001136  82.0569 278.0759 14.58538872736741
SPOT 7                  
1 40053U 14034A   26193.52233059  .00000396  00000+0  89965-4 0  9992
2 40053  98.0624 255.3599 0001586  96.5336 263.6046 14.60980137640830
