{"fetched_at":"2026-07-12T17:33:06.735Z","source":"https://celestrak.org/NORAD/elements/gp.php?NAME=SPOT&FORMAT=JSON","constellation":"spot","records":[{"OBJECT_NAME":"SPOT 6","OBJECT_ID":"2012-047A","EPOCH":"2026-07-12T12:17:22.746048","CLASSIFICATION_TYPE":"U","MEAN_MOTION":14.58538872,"ECCENTRICITY":0.0001136,"INCLINATION":98.2114,"RA_OF_ASC_NODE":260.5231,"ARG_OF_PERICENTER":82.0569,"MEAN_ANOMALY":278.0759,"EPHEMERIS_TYPE":0,"NORAD_CAT_ID":38755,"ELEMENT_SET_NO":999,"REV_AT_EPOCH":73674,"BSTAR":0.000093801,"MEAN_MOTION_DOT":0.0000039,"MEAN_MOTION_DDOT":0},{"OBJECT_NAME":"SPOT 7","OBJECT_ID":"2014-034A","EPOCH":"2026-07-12T12:32:09.362976","CLASSIFICATION_TYPE":"U","MEAN_MOTION":14.60980137,"ECCENTRICITY":0.0001586,"INCLINATION":98.0624,"RA_OF_ASC_NODE":255.3599,"ARG_OF_PERICENTER":96.5336,"MEAN_ANOMALY":263.6046,"EPHEMERIS_TYPE":0,"NORAD_CAT_ID":40053,"ELEMENT_SET_NO":999,"REV_AT_EPOCH":64083,"BSTAR":0.000089965,"MEAN_MOTION_DOT":0.00000396,"MEAN_MOTION_DDOT":0}]}
